{"type": "FeatureCollection", "features": [ {"type": "Feature", "properties": {"norad_id": 66651, "name": "2025-274B", "group": "last-30-days", "lat": 50.19373240545776, "lon": 110.07297520760861, "alt_km": 588.426637726021, "timestamp": "2025-12-19T14:48:34.964562+00:00", "meta": {"OBJECT_NAME": "2025-274B", "OBJECT_ID": "2025-274B", "EPOCH": "2025-12-18T18:54:54.289440", "MEAN_MOTION": 14.91839474, "ECCENTRICITY": 0.00109219, "INCLINATION": 97.7394, "RA_OF_ASC_NODE": 279.8668, "ARG_OF_PERICENTER": 227.976, "MEAN_ANOMALY": 132.0529, "EPHEMERIS_TYPE": 0, "CLASSIFICATION_TYPE": "U", "NORAD_CAT_ID": 66651, "ELEMENT_SET_NO": 999, "REV_AT_EPOCH": 330, "BSTAR": 0.00023159462, "MEAN_MOTION_DOT": 2.284e-05, "MEAN_MOTION_DDOT": 0}, "tle": {"line1": "1 66651U 25274B   25352.78812835  .00002284  00000+0  23159-3 0  9991", "line2": "2 66651  97.7394 279.8668 0010921 227.9760 132.0529 14.91839474  3305"}}, "geometry": {"type": "Point", "coordinates": [110.07297520760861, 50.19373240545776]}}, {"type": "Feature", "properties": {"norad_id": 66652, "name": "2025-274C", "group": "last-30-days", "lat": 40.2608356016032, "lon": 107.30054105971253, "alt_km": 589.1349496127614, "timestamp": "2025-12-19T14:48:34.964572+00:00", "meta": {"OBJECT_NAME": "2025-274C", "OBJECT_ID": "2025-274C", "EPOCH": "2025-12-19T06:08:19.159584", "MEAN_MOTION": 14.91935535, "ECCENTRICITY": 0.00105345, "INCLINATION": 97.74, "RA_OF_ASC_NODE": 280.3315, "ARG_OF_PERICENTER": 233.1772, "MEAN_ANOMALY": 126.8481, "EPHEMERIS_TYPE": 0, "CLASSIFICATION_TYPE": "U", "NORAD_CAT_ID": 66652, "ELEMENT_SET_NO": 999, "REV_AT_EPOCH": 337, "BSTAR": 0.0001755185, "MEAN_MOTION_DOT": 1.722e-05, "MEAN_MOTION_DDOT": 0}, "tle": {"line1": "1 66652U 25274C   25353.25577731  .00001722  00000+0  17552-3 0  9994", "line2": "2 66652  97.7400 280.3315 0010534 233.1772 126.8481 14.91935535  3372"}}, "geometry": {"type": "Point", "coordinates": [107.30054105971253, 40.2608356016032]}}, {"type": "Feature", "properties": {"norad_id": 66653, "name": "2025-274D", "group": "last-30-days", "lat": 39.8220760596682, "lon": 107.19755640848771, "alt_km": 588.6505364410377, "timestamp": "2025-12-19T14:48:34.964585+00:00", "meta": {"OBJECT_NAME": "2025-274D", "OBJECT_ID": "2025-274D", "EPOCH": "2025-12-19T06:08:11.743008", "MEAN_MOTION": 14.91935009, "ECCENTRICITY": 0.00115087, "INCLINATION": 97.7398, "RA_OF_ASC_NODE": 280.3311, "ARG_OF_PERICENTER": 229.4362, "MEAN_ANOMALY": 130.5856, "EPHEMERIS_TYPE": 0, "CLASSIFICATION_TYPE": "U", "NORAD_CAT_ID": 66653, "ELEMENT_SET_NO": 999, "REV_AT_EPOCH": 337, "BSTAR": 0.00013153861, "MEAN_MOTION_DOT": 1.276e-05, "MEAN_MOTION_DDOT": 0}, "tle": {"line1": "1 66653U 25274D   25353.25569147  .00001276  00000+0  13154-3 0  9995", "line2": "2 66653  97.7398 280.3311 0011508 229.4362 130.5856 14.91935009  3374"}}, "geometry": {"type": "Point", "coordinates": [107.19755640848771, 39.8220760596682]}}, {"type": "Feature", "properties": {"norad_id": 66654, "name": "JACK E", "group": "last-30-days", "lat": 25.87520931944256, "lon": 104.4753932475349, "alt_km": 588.5457203497526, "timestamp": "2025-12-19T14:48:34.964595+00:00", "meta": {"OBJECT_NAME": "JACK E", "OBJECT_ID": "2025-274E", "EPOCH": "2025-12-18T20:25:04.095840", "MEAN_MOTION": 14.92115116, "ECCENTRICITY": 0.00119932, "INCLINATION": 97.74, "RA_OF_ASC_NODE": 279.9401, "ARG_OF_PERICENTER": 232.7773, "MEAN_ANOMALY": 127.2352, "EPHEMERIS_TYPE": 0, "CLASSIFICATION_TYPE": "U", "NORAD_CAT_ID": 66654, "ELEMENT_SET_NO": 999, "REV_AT_EPOCH": 331, "BSTAR": 0.0001596937, "MEAN_MOTION_DOT": 1.569e-05, "MEAN_MOTION_DDOT": 0}, "tle": {"line1": "1 66654U 25274E   25352.85074185  .00001569  00000+0  15969-3 0  9995", "line2": "2 66654  97.7400 279.9401 0011993 232.7773 127.2352 14.92115116  3312"}}, "geometry": {"type": "Point", "coordinates": [104.4753932475349, 25.87520931944256]}}, {"type": "Feature", "properties": {"norad_id": 66655, "name": "2025-274F", "group": "last-30-days", "lat": 45.37374641920944, "lon": 108.59260064295589, "alt_km": 592.8088019769657, "timestamp": "2025-12-19T14:48:34.964605+00:00", "meta": {"OBJECT_NAME": "2025-274F", "OBJECT_ID": "2025-274F", "EPOCH": "2025-12-18T18:53:07.339200", "MEAN_MOTION": 14.91174217, "ECCENTRICITY": 0.00049938, "INCLINATION": 97.7329, "RA_OF_ASC_NODE": 279.8662, "ARG_OF_PERICENTER": 2.8245, "MEAN_ANOMALY": 357.3001, "EPHEMERIS_TYPE": 0, "CLASSIFICATION_TYPE": "U", "NORAD_CAT_ID": 66655, "ELEMENT_SET_NO": 999, "REV_AT_EPOCH": 330, "BSTAR": -7.422034e-06, "MEAN_MOTION_DOT": -1.29e-06, "MEAN_MOTION_DDOT": 0}, "tle": {"line1": "1 66655U 25274F   25352.78689050 -.00000129  00000+0 -74220-5 0  9991", "line2": "2 66655  97.7329 279.8662 0004993   2.8245 357.3001 14.91174217  3305"}}, "geometry": {"type": "Point", "coordinates": [108.59260064295589, 45.37374641920944]}}, {"type": "Feature", "properties": {"norad_id": 66656, "name": "2025-274G", "group": "last-30-days", "lat": 10.622298959682063, "lon": 102.16049702620903, "alt_km": 588.251352855762, "timestamp": "2025-12-19T14:48:34.964617+00:00", "meta": {"OBJECT_NAME": "2025-274G", "OBJECT_ID": "2025-274G", "EPOCH": "2025-12-19T06:00:24.513408", "MEAN_MOTION": 14.92310585, "ECCENTRICITY": 0.00125722, "INCLINATION": 97.7401, "RA_OF_ASC_NODE": 280.3384, "ARG_OF_PERICENTER": 233.0286, "MEAN_ANOMALY": 126.9783, "EPHEMERIS_TYPE": 0, "CLASSIFICATION_TYPE": "U", "NORAD_CAT_ID": 66656, "ELEMENT_SET_NO": 999, "REV_AT_EPOCH": 337, "BSTAR": 0.00015788764, "MEAN_MOTION_DOT": 1.559e-05, "MEAN_MOTION_DDOT": 0}, "tle": {"line1": "1 66656U 25274G   25353.25028372  .00001559  00000+0  15789-3 0  9998", "line2": "2 66656  97.7401 280.3384 0012572 233.0286 126.9783 14.92310585  3375"}}, "geometry": {"type": "Point", "coordinates": [102.16049702620903, 10.622298959682063]}}, {"type": "Feature", "properties": {"norad_id": 66657, "name": "SPIRONE", "group": "last-30-days", "lat": -4.0257255806778485, "lon": 100.15599150099591, "alt_km": 590.7311965667495, "timestamp": "2025-12-19T14:48:34.964627+00:00", "meta": {"OBJECT_NAME": "SPIRONE", "OBJECT_ID": "2025-274H", "EPOCH": "2025-12-18T20:17:15.327456", "MEAN_MOTION": 14.92488768, "ECCENTRICITY": 0.00107229, "INCLINATION": 97.7399, "RA_OF_ASC_NODE": 279.9459, "ARG_OF_PERICENTER": 252.9623, "MEAN_ANOMALY": 107.0422, "EPHEMERIS_TYPE": 0, "CLASSIFICATION_TYPE": "U", "NORAD_CAT_ID": 66657, "ELEMENT_SET_NO": 999, "REV_AT_EPOCH": 331, "BSTAR": 0.00017540552, "MEAN_MOTION_DOT": 1.745e-05, "MEAN_MOTION_DDOT": 0}, "tle": {"line1": "1 66657U 25274H   25352.84531629  .00001745  00000+0  17541-3 0  9992", "line2": "2 66657  97.7399 279.9459 0010722 252.9623 107.0422 14.92488768  3312"}}, "geometry": {"type": "Point", "coordinates": [100.15599150099591, -4.0257255806778485]}}, {"type": "Feature", "properties": {"norad_id": 66658, "name": "2025-274J", "group": "last-30-days", "lat": -18.14985380667, "lon": 98.15525089149541, "alt_km": 590.2247025954075, "timestamp": "2025-12-19T14:48:34.964637+00:00", "meta": {"OBJECT_NAME": "2025-274J", "OBJECT_ID": "2025-274J", "EPOCH": "2025-12-19T05:52:44.883552", "MEAN_MOTION": 14.92660153, "ECCENTRICITY": 0.00112662, "INCLINATION": 97.7399, "RA_OF_ASC_NODE": 280.3448, "ARG_OF_PERICENTER": 254.6589, "MEAN_ANOMALY": 105.3385, "EPHEMERIS_TYPE": 0, "CLASSIFICATION_TYPE": "U", "NORAD_CAT_ID": 66658, "ELEMENT_SET_NO": 999, "REV_AT_EPOCH": 337, "BSTAR": 0.00015304223, "MEAN_MOTION_DOT": 1.522e-05, "MEAN_MOTION_DDOT": 0}, "tle": {"line1": "1 66658U 25274J   25353.24496393  .00001522  00000+0  15304-3 0  9994", "line2": "2 66658  97.7399 280.3448 0011266 254.6589 105.3385 14.92660153  3376"}}, "geometry": {"type": "Point", "coordinates": [98.15525089149541, -18.14985380667]}}, {"type": "Feature", "properties": {"norad_id": 66659, "name": "JACK K", "group": "last-30-days", "lat": -33.2628827867541, "lon": 95.59921953465894, "alt_km": 588.9984424440972, "timestamp": "2025-12-19T14:48:34.964647+00:00", "meta": {"OBJECT_NAME": "JACK K", "OBJECT_ID": "2025-274K", "EPOCH": "2025-12-19T05:48:42.862464", "MEAN_MOTION": 14.92844951, "ECCENTRICITY": 0.00119748, "INCLINATION": 97.7402, "RA_OF_ASC_NODE": 280.3491, "ARG_OF_PERICENTER": 256.114, "MEAN_ANOMALY": 103.8748, "EPHEMERIS_TYPE": 0, "CLASSIFICATION_TYPE": "U", "NORAD_CAT_ID": 66659, "ELEMENT_SET_NO": 999, "REV_AT_EPOCH": 337, "BSTAR": 0.00015282471, "MEAN_MOTION_DOT": 1.527e-05, "MEAN_MOTION_DDOT": 0}, "tle": {"line1": "1 66659U 25274K   25353.24216276  .00001527  00000+0  15282-3 0  9995", "line2": "2 66659  97.7402 280.3491 0011974 256.1140 103.8748 14.92844951  3372"}}, "geometry": {"type": "Point", "coordinates": [95.59921953465894, -33.2628827867541]}}, {"type": "Feature", "properties": {"norad_id": 66660, "name": "K-HERO", "group": "last-30-days", "lat": -45.446784165289046, "lon": 92.78299495041878, "alt_km": 587.7924837074161, "timestamp": "2025-12-19T14:48:34.964657+00:00", "meta": {"OBJECT_NAME": "K-HERO", "OBJECT_ID": "2025-274L", "EPOCH": "2025-12-18T18:29:52.806048", "MEAN_MOTION": 14.92995215, "ECCENTRICITY": 0.00125308, "INCLINATION": 97.7404, "RA_OF_ASC_NODE": 279.8915, "ARG_OF_PERICENTER": 258.5821, "MEAN_ANOMALY": 101.3991, "EPHEMERIS_TYPE": 0, "CLASSIFICATION_TYPE": "U", "NORAD_CAT_ID": 66660, "ELEMENT_SET_NO": 999, "REV_AT_EPOCH": 330, "BSTAR": 0.00019949035, "MEAN_MOTION_DOT": 2.019e-05, "MEAN_MOTION_DDOT": 0}, "tle": {"line1": "1 66660U 25274L   25352.77075007  .00002019  00000+0  19949-3 0  9990", "line2": "2 66660  97.7404 279.8915 0012530 258.5821 101.3991 14.92995215  3307"}}, "geometry": {"type": "Point", "coordinates": [92.78299495041878, -45.446784165289046]}}]}